0 FENGYUN 1C DEB
1 35206U 99025DPN 13285.53844189  .00172903  00000-0  52663-2 0  2755
2 35206 098.9058 191.0677 0057540 234.6690 124.9160 15.31658985290734
0 FENGYUN 1C DEB
1 35206U 99025DPN 13285.93040428  .00180431  00000-0  54741-2 0  2768
2 35206 098.9048 191.5360 0057148 232.6370 126.9654 15.31775219290790
0 FENGYUN 1C DEB
1 35206U 99025DPN 13286.51828957  .00163127  00000-0  49396-2 0  2778
2 35206 098.9064 192.2403 0056519 230.7604 128.8610 15.31937743290889
0 FENGYUN 1C DEB
1 35206U 99025DPN 13288.54263614  .00274988  00000-0  80099-2 0  2780
2 35206 098.9073 194.6728 0056190 223.0801 136.6032 15.32745651291190
0 FENGYUN 1C DEB
1 35206U 99025DPN 13288.99958394  .00253789  00000-0  73653-2 0  2790
2 35206 098.9069 195.2232 0056067 221.3388 138.3600 15.32948064291267
0 FENGYUN 1C DEB
1 35206U 99025DPN 13289.97858004  .00231264  00000-0  66598-2 0  2802
2 35206 098.9058 196.4035 0055562 217.9493 141.7824 15.33303385291411
0 FENGYUN 1C DEB
1 35206U 99025DPN 13290.56586159  .00272244  00000-0  77390-2 0  2814
2 35206 098.9052 197.1099 0055526 215.4551 144.2991 15.33554641291507
0 FENGYUN 1C DEB
1 35206U 99025DPN 13291.54443054  .00240492  00000-0  67689-2 0  2820
2 35206 098.9050 198.2885 0055464 211.8069 147.9815 15.33987017291653
0 FENGYUN 1C DEB
1 35206U 99025DPN 13291.93580874  .00197030  00000-0  55592-2 0  2835
2 35206 098.9054 198.7590 0055215 210.4158 149.3873 15.34088845291712
0 FENGYUN 1C DEB
1 35206U 99025DPN 13292.19669627  .00209663  00000-0  58789-2 0  2846
2 35206 098.9055 199.0735 0055194 209.3247 150.4891 15.34235650291755
0 FENGYUN 1C DEB
1 35206U 99025DPN 13294.54387225  .00266917  00000-0  72152-2 0  2854
2 35206 098.9057 201.9032 0055199 200.5369 159.3651 15.35154563292110
0 FENGYUN 1C DEB
1 35206U 99025DPN 13294.93492925  .00239677  00000-0  64638-2 0  2865
2 35206 098.9062 202.3747 0055227 199.0824 160.8347 15.35326253292176
